[{"OBJECT_NAME":"CUBEBEL 2 (EU11S)","OBJECT_ID":"2023-091K","EPOCH":"2026-03-09T21:40:29.186112","MEAN_MOTION":15.26706784,"ECCENTRICITY":0.00118653,"INCLINATION":97.517,"RA_OF_ASC_NODE":131.3579,"ARG_OF_PERICENTER":105.889,"MEAN_ANOMALY":254.3657,"EPHEMERIS_TYPE":0,"CLASSIFICATION_TYPE":"U","NORAD_CAT_ID":57175,"ELEMENT_SET_NO":999,"REV_AT_EPOCH":14914,"BSTAR":0.00056688644,"MEAN_MOTION_DOT":0.00014859,"MEAN_MOTION_DDOT":0},{"OBJECT_NAME":"STARLINK-31081","OBJECT_ID":"2023-203Q","EPOCH":"2026-03-09T01:16:45.570144","MEAN_MOTION":15.27566603,"ECCENTRICITY":0.00012103,"INCLINATION":43.0042,"RA_OF_ASC_NODE":74.1567,"ARG_OF_PERICENTER":279.3892,"MEAN_ANOMALY":80.6822,"EPHEMERIS_TYPE":0,"CLASSIFICATION_TYPE":"U","NORAD_CAT_ID":58632,"ELEMENT_SET_NO":999,"REV_AT_EPOCH":12465,"BSTAR":-3.8669687e-5,"MEAN_MOTION_DOT":-1.326e-5,"MEAN_MOTION_DDOT":0}]
